OBJECT B                
1 51825U 22019B   24085.84852534  .00025695  00000+0  12057-2 0  9996
2 51825  97.4361 158.3302 0015811 166.6135 193.5522 15.19521527114561
